[{"OBJECT_NAME":"SL-14 R/B","OBJECT_ID":"1986-006B","EPOCH":"2026-04-22T19:15:51.564096","MEAN_MOTION":14.868868,"ECCENTRICITY":0.0077735,"INCLINATION":82.5292,"RA_OF_ASC_NODE":218.2209,"ARG_OF_PERICENTER":125.8665,"MEAN_ANOMALY":234.9804,"EPHEMERIS_TYPE":0,"CLASSIFICATION_TYPE":"U","NORAD_CAT_ID":16496,"ELEMENT_SET_NO":999,"REV_AT_EPOCH":15576,"BSTAR":5.5381e-5,"MEAN_MOTION_DOT":5.51e-6,"MEAN_MOTION_DDOT":0},{"OBJECT_NAME":"COSMOS 1743","OBJECT_ID":"1986-034A","EPOCH":"2026-04-22T19:46:58.084032","MEAN_MOTION":15.62369267,"ECCENTRICITY":0.0007517,"INCLINATION":82.5323,"RA_OF_ASC_NODE":27.3776,"ARG_OF_PERICENTER":110.0506,"MEAN_ANOMALY":250.1562,"EPHEMERIS_TYPE":0,"CLASSIFICATION_TYPE":"U","NORAD_CAT_ID":16719,"ELEMENT_SET_NO":999,"REV_AT_EPOCH":18713,"BSTAR":0.00040389,"MEAN_MOTION_DOT":0.00035892,"MEAN_MOTION_DDOT":0},{"OBJECT_NAME":"SL-14 R/B","OBJECT_ID":"1986-046B","EPOCH":"2026-04-22T12:28:57.673344","MEAN_MOTION":14.85631212,"ECCENTRICITY":0.00246806,"INCLINATION":82.4842,"RA_OF_ASC_NODE":38.7672,"ARG_OF_PERICENTER":83.535,"MEAN_ANOMALY":276.8675,"EPHEMERIS_TYPE":0,"CLASSIFICATION_TYPE":"U","NORAD_CAT_ID":16792,"ELEMENT_SET_NO":999,"REV_AT_EPOCH":13291,"BSTAR":3.4415821e-5,"MEAN_MOTION_DOT":3.24e-6,"MEAN_MOTION_DDOT":0},{"OBJECT_NAME":"SL-14 R/B","OBJECT_ID":"1986-055B","EPOCH":"2026-04-22T20:13:44.666976","MEAN_MOTION":14.85680016,"ECCENTRICITY":0.0018768,"INCLINATION":82.5182,"RA_OF_ASC_NODE":85.158,"ARG_OF_PERICENTER":181.2275,"MEAN_ANOMALY":197.2096,"EPHEMERIS_TYPE":0,"CLASSIFICATION_TYPE":"U","NORAD_CAT_ID":16882,"ELEMENT_SET_NO":999,"REV_AT_EPOCH":12592,"BSTAR":3.4904e-5,"MEAN_MOTION_DOT":3.28e-6,"MEAN_MOTION_DDOT":0},{"OBJECT_NAME":"AJISAI (EGS)","OBJECT_ID":"1986-061A","EPOCH":"2026-04-22T19:25:10.516800","MEAN_MOTION":12.44515917,"ECCENTRICITY":0.0011413,"INCLINATION":50.0104,"RA_OF_ASC_NODE":317.6834,"ARG_OF_PERICENTER":40.2469,"MEAN_ANOMALY":52.1635,"EPHEMERIS_TYPE":0,"CLASSIFICATION_TYPE":"U","NORAD_CAT_ID":16908,"ELEMENT_SET_NO":999,"REV_AT_EPOCH":47349,"BSTAR":9.3105e-5,"MEAN_MOTION_DOT":-8.4e-7,"MEAN_MOTION_DDOT":0},{"OBJECT_NAME":"SL-14 R/B","OBJECT_ID":"1987-024B","EPOCH":"2026-04-22T16:08:01.248288","MEAN_MOTION":14.86172307,"ECCENTRICITY":0.0019689,"INCLINATION":82.5294,"RA_OF_ASC_NODE":51.42,"ARG_OF_PERICENTER":113.096,"MEAN_ANOMALY":247.2335,"EPHEMERIS_TYPE":0,"CLASSIFICATION_TYPE":"U","NORAD_CAT_ID":17567,"ELEMENT_SET_NO":999,"REV_AT_EPOCH":9466,"BSTAR":3.3689e-5,"MEAN_MOTION_DOT":3.21e-6,"MEAN_MOTION_DDOT":0},{"OBJECT_NAME":"COSMOS 1833","OBJECT_ID":"1987-027A","EPOCH":"2026-04-22T14:36:19.481184","MEAN_MOTION":14.13035001,"ECCENTRICITY":0.0022443,"INCLINATION":70.9164,"RA_OF_ASC_NODE":233.6993,"ARG_OF_PERICENTER":146.7702,"MEAN_ANOMALY":213.4833,"EPHEMERIS_TYPE":0,"CLASSIFICATION_TYPE":"U","NORAD_CAT_ID":17589,"ELEMENT_SET_NO":999,"REV_AT_EPOCH":1652,"BSTAR":-9.9405e-5,"MEAN_MOTION_DOT":-2.34e-6,"MEAN_MOTION_DDOT":0},{"OBJECT_NAME":"SL-16 R/B","OBJECT_ID":"1987-027B","EPOCH":"2026-04-22T15:59:33.129024","MEAN_MOTION":14.17169478,"ECCENTRICITY":0.0003469,"INCLINATION":71.003,"RA_OF_ASC_NODE":183.8247,"ARG_OF_PERICENTER":33.0654,"MEAN_ANOMALY":327.0686,"EPHEMERIS_TYPE":0,"CLASSIFICATION_TYPE":"U","NORAD_CAT_ID":17590,"ELEMENT_SET_NO":999,"REV_AT_EPOCH":2157,"BSTAR":0.00012075,"MEAN_MOTION_DOT":1.96e-6,"MEAN_MOTION_DDOT":0},{"OBJECT_NAME":"SL-14 R/B","OBJECT_ID":"1987-038B","EPOCH":"2026-04-22T11:42:11.460960","MEAN_MOTION":14.85407337,"ECCENTRICITY":0.00197792,"INCLINATION":82.4999,"RA_OF_ASC_NODE":255.5347,"ARG_OF_PERICENTER":24.1708,"MEAN_ANOMALY":336.0431,"EPHEMERIS_TYPE":0,"CLASSIFICATION_TYPE":"U","NORAD_CAT_ID":17912,"ELEMENT_SET_NO":999,"REV_AT_EPOCH":8573,"BSTAR":3.1861395e-5,"MEAN_MOTION_DOT":3.0e-6,"MEAN_MOTION_DDOT":0},{"OBJECT_NAME":"COSMOS 1844","OBJECT_ID":"1987-041A","EPOCH":"2026-04-22T19:24:37.835136","MEAN_MOTION":14.14562001,"ECCENTRICITY":0.003274,"INCLINATION":70.8985,"RA_OF_ASC_NODE":301.1182,"ARG_OF_PERICENTER":313.1737,"MEAN_ANOMALY":46.6649,"EPHEMERIS_TYPE":0,"CLASSIFICATION_TYPE":"U","NORAD_CAT_ID":17973,"ELEMENT_SET_NO":999,"REV_AT_EPOCH":982,"BSTAR":-0.00013164,"MEAN_MOTION_DOT":-3.03e-6,"MEAN_MOTION_DDOT":0},{"OBJECT_NAME":"SL-14 R/B","OBJECT_ID":"1987-055B","EPOCH":"2026-04-22T19:02:46.010112","MEAN_MOTION":14.85666434,"ECCENTRICITY":0.0019528,"INCLINATION":82.4969,"RA_OF_ASC_NODE":307.4587,"ARG_OF_PERICENTER":224.8375,"MEAN_ANOMALY":135.1264,"EPHEMERIS_TYPE":0,"CLASSIFICATION_TYPE":"U","NORAD_CAT_ID":18153,"ELEMENT_SET_NO":999,"REV_AT_EPOCH":7648,"BSTAR":2.749e-5,"MEAN_MOTION_DOT":2.63e-6,"MEAN_MOTION_DDOT":0},{"OBJECT_NAME":"COSMOS 1867","OBJECT_ID":"1987-060A","EPOCH":"2026-04-22T12:34:16.627584","MEAN_MOTION":14.31509386,"ECCENTRICITY":0.0015334,"INCLINATION":65.0105,"RA_OF_ASC_NODE":183.9461,"ARG_OF_PERICENTER":280.8605,"MEAN_ANOMALY":79.0754,"EPHEMERIS_TYPE":0,"CLASSIFICATION_TYPE":"U","NORAD_CAT_ID":18187,"ELEMENT_SET_NO":999,"REV_AT_EPOCH":2621,"BSTAR":1.742e-5,"MEAN_MOTION_DOT":-5.4e-7,"MEAN_MOTION_DDOT":0},{"OBJECT_NAME":"SL-14 R/B","OBJECT_ID":"1988-001B","EPOCH":"2026-04-22T15:46:26.979744","MEAN_MOTION":14.85568208,"ECCENTRICITY":0.0019661,"INCLINATION":82.5128,"RA_OF_ASC_NODE":154.0167,"ARG_OF_PERICENTER":93.0281,"MEAN_ANOMALY":267.3185,"EPHEMERIS_TYPE":0,"CLASSIFICATION_TYPE":"U","NORAD_CAT_ID":18749,"ELEMENT_SET_NO":999,"REV_AT_EPOCH":4855,"BSTAR":2.561e-5,"MEAN_MOTION_DOT":2.47e-6,"MEAN_MOTION_DDOT":0},{"OBJECT_NAME":"COSMOS 1933","OBJECT_ID":"1988-020A","EPOCH":"2026-04-22T05:23:28.962528","MEAN_MOTION":15.18365492,"ECCENTRICITY":0.00051652,"INCLINATION":82.5152,"RA_OF_ASC_NODE":207.8317,"ARG_OF_PERICENTER":62.6036,"MEAN_ANOMALY":297.5723,"EPHEMERIS_TYPE":0,"CLASSIFICATION_TYPE":"U","NORAD_CAT_ID":18958,"ELEMENT_SET_NO":999,"REV_AT_EPOCH":5683,"BSTAR":0.00013667605,"MEAN_MOTION_DOT":2.839e-5,"MEAN_MOTION_DDOT":0},{"OBJECT_NAME":"SL-3 R/B","OBJECT_ID":"1988-032B","EPOCH":"2026-04-22T18:27:59.265216","MEAN_MOTION":15.20357377,"ECCENTRICITY":0.0027666,"INCLINATION":97.524,"RA_OF_ASC_NODE":95.897,"ARG_OF_PERICENTER":81.1269,"MEAN_ANOMALY":279.3097,"EPHEMERIS_TYPE":0,"CLASSIFICATION_TYPE":"U","NORAD_CAT_ID":19046,"ELEMENT_SET_NO":999,"REV_AT_EPOCH":5880,"BSTAR":0.00016935,"MEAN_MOTION_DOT":3.651e-5,"MEAN_MOTION_DDOT":0},{"OBJECT_NAME":"SL-16 R/B","OBJECT_ID":"1988-039B","EPOCH":"2026-04-22T19:23:29.694048","MEAN_MOTION":14.19622758,"ECCENTRICITY":0.0024077,"INCLINATION":71.0155,"RA_OF_ASC_NODE":335.2617,"ARG_OF_PERICENTER":271.9526,"MEAN_ANOMALY":87.8841,"EPHEMERIS_TYPE":0,"CLASSIFICATION_TYPE":"U","NORAD_CAT_ID":19120,"ELEMENT_SET_NO":999,"REV_AT_EPOCH":96464,"BSTAR":4.282e-5,"MEAN_MOTION_DOT":4.2e-7,"MEAN_MOTION_DDOT":0},{"OBJECT_NAME":"COSMOS 1953","OBJECT_ID":"1988-050A","EPOCH":"2026-04-22T11:26:57.545088","MEAN_MOTION":15.29167453,"ECCENTRICITY":0.00098268,"INCLINATION":82.5051,"RA_OF_ASC_NODE":114.1751,"ARG_OF_PERICENTER":339.6348,"MEAN_ANOMALY":20.4498,"EPHEMERIS_TYPE":0,"CLASSIFICATION_TYPE":"U","NORAD_CAT_ID":19210,"ELEMENT_SET_NO":999,"REV_AT_EPOCH":4447,"BSTAR":0.00022401395,"MEAN_MOTION_DOT":6.38e-5,"MEAN_MOTION_DDOT":0}]
