SL-14 R/B               
1 16496U 86006B   26112.80268014  .00000551  00000+0  55381-4 0  9993
2 16496  82.5292 218.2209 0077735 125.8665 234.9804 14.86886800155765
COSMOS 1743             
1 16719U 86034A   26112.82428338  .00035892  00000+0  40389-3 0  9998
2 16719  82.5323  27.3776 0007517 110.0506 250.1562 15.62369267187132
SL-14 R/B               
1 16792U 86046B   26112.52011196  .00000324  00000+0  34416-4 0  9996
2 16792  82.4842  38.7672 0024680  83.5350 276.8675 14.85631212132912
SL-14 R/B               
1 16882U 86055B   26112.84287809  .00000328  00000+0  34904-4 0  9993
2 16882  82.5182  85.1580 0018768 181.2275 197.2096 14.85680016125928
AJISAI (EGS)            
1 16908U 86061A   26112.80914950 -.00000084  00000+0  93105-4 0  9997
2 16908  50.0104 317.6834 0011413  40.2469  52.1635 12.44515917473491
SL-14 R/B               
1 17567U 87024B   26112.67223667  .00000321  00000+0  33689-4 0  9996
2 17567  82.5294  51.4200 0019689 113.0960 247.2335 14.86172307 94663
COSMOS 1833             
1 17589U 87027A   26112.60855881 -.00000234  00000+0 -99405-4 0  9998
2 17589  70.9164 233.6993 0022443 146.7702 213.4833 14.13035001 16522
SL-16 R/B               
1 17590U 87027B   26112.66635566  .00000196  00000+0  12075-3 0  9994
2 17590  71.0030 183.8247 0003469  33.0654 327.0686 14.17169478 21576
SL-14 R/B               
1 17912U 87038B   26112.48763265  .00000300  00000+0  31861-4 0  9994
2 17912  82.4999 255.5347 0019779  24.1708 336.0431 14.85407337 85734
COSMOS 1844             
1 17973U 87041A   26112.80877124 -.00000303  00000+0 -13164-3 0  9991
2 17973  70.8985 301.1182 0032740 313.1737  46.6649 14.14562001  9821
SL-14 R/B               
1 18153U 87055B   26112.79358808  .00000263  00000+0  27490-4 0  9999
2 18153  82.4969 307.4587 0019528 224.8375 135.1264 14.85666434 76482
COSMOS 1867             
1 18187U 87060A   26112.52380356 -.00000054  00000+0  17420-4 0  9997
2 18187  65.0105 183.9461 0015334 280.8605  79.0754 14.31509386 26214
SL-14 R/B               
1 18749U 88001B   26112.65725671  .00000247  00000+0  25610-4 0  9997
2 18749  82.5128 154.0167 0019661  93.0281 267.3185 14.85568208 48558
COSMOS 1933             
1 18958U 88020A   26112.22464077  .00002839  00000+0  13668-3 0  9991
2 18958  82.5152 207.8317 0005165  62.6036 297.5723 15.18365492 56835
SL-3 R/B                
1 19046U 88032B   26112.76943594  .00003651  00000+0  16935-3 0  9991
2 19046  97.5240  95.8970 0027666  81.1269 279.3097 15.20357377 58809
SL-16 R/B               
1 19120U 88039B   26112.80798257  .00000042  00000+0  42820-4 0  9994
2 19120  71.0155 335.2617 0024077 271.9526  87.8841 14.19622758964643
COSMOS 1953             
1 19210U 88050A   26112.47705492  .00006380  00000+0  22401-3 0  9992
2 19210  82.5051 114.1751 0009826 339.6348  20.4498 15.29167453 44476
